GLOBAL-2                
1 43812U 18099BG  26189.36446007  .00001922  00000+0  12603-3 0  9999
2 43812  97.3553 224.9971 0007708  85.5273 274.6836 15.08802375415104
GLOBAL-4                
1 44499U 19054E   26188.94504605  .00037372  00000+0  35230-3 0  9994
2 44499  45.0043 116.4508 0004325 145.7131 214.4047 15.66458654383612
GLOBAL-9                
1 47971U 21023G   26189.23960419  .00014816  00000+0  28943-3 0  9994
2 47971  44.9804 132.1289 0002649 115.2236 244.8929 15.47400053298204
GLOBAL-14               
1 49469U 21106A   26189.39907703  .00016839  00000+0  27992-3 0  9994
2 49469  42.0026 164.9224 0016474 177.8259 182.2659 15.51581768261422
GLOBAL-12               
1 49772U 21115BA  26189.29352865  .00024393  00000+0  36341-3 0  9995
2 49772  53.1954 302.9559 0002651  69.1864 290.9432 15.54996378259180
GLOBAL-13               
1 49773U 21115BB  26189.38218964  .00014567  00000+0  29266-3 0  9997
2 49773  53.1976 313.7706 0001412 151.1832 208.9255 15.46919856259044
GLOBAL-17               
1 49949U 21120A   26189.31362367  .00021805  00000+0  33781-3 0  9998
2 49949  41.9949 283.3018 0013822  38.0757 322.1062 15.53445038258182
GLOBAL-16               
1 49950U 21120B   26189.48497242  .00018849  00000+0  31716-3 0  9999
2 49950  41.9954 286.4179 0012112  28.3168 331.8332 15.51247181258152
GLOBAL-18               
1 52196U 22034B   26189.32064078  .00013990  00000+0  28048-3 0  9996
2 52196  52.9807 155.5800 0004247   5.6496 354.4557 15.47012171240230
GLOBAL-19               
1 55982U 23041B   26189.07015869  .00007915  00000+0  20987-3 0  9991
2 55982  42.0014  80.0626 0008394 170.2960 189.8043 15.38551274185146
GLOBAL-5                
1 55983U 23041C   26188.97306683  .00008268  00000+0  21888-3 0  9990
2 55983  42.0005  80.1562 0007210 164.3240 195.7824 15.38561915185133
